[{"OBJECT_NAME":"STARLINK-32413","OBJECT_ID":"2024-187S","EPOCH":"2026-03-09T06:17:15.794304","MEAN_MOTION":15.30183449,"ECCENTRICITY":0.00014124,"INCLINATION":53.1606,"RA_OF_ASC_NODE":67.3298,"ARG_OF_PERICENTER":80.6883,"MEAN_ANOMALY":279.4278,"EPHEMERIS_TYPE":0,"CLASSIFICATION_TYPE":"U","NORAD_CAT_ID":61590,"ELEMENT_SET_NO":999,"REV_AT_EPOCH":7901,"BSTAR":6.3342625e-5,"MEAN_MOTION_DOT":1.516e-5,"MEAN_MOTION_DDOT":0},{"OBJECT_NAME":"CZ-6A DEB","OBJECT_ID":"2022-151EM","EPOCH":"2026-03-09T21:12:10.844640","MEAN_MOTION":15.1479521,"ECCENTRICITY":0.00732342,"INCLINATION":98.809,"RA_OF_ASC_NODE":212.6624,"ARG_OF_PERICENTER":10.5605,"MEAN_ANOMALY":349.714,"EPHEMERIS_TYPE":0,"CLASSIFICATION_TYPE":"U","NORAD_CAT_ID":54413,"ELEMENT_SET_NO":999,"REV_AT_EPOCH":17915,"BSTAR":0.0020661814,"MEAN_MOTION_DOT":0.00041137,"MEAN_MOTION_DDOT":0}]
